CTC1_L_00243001-01
1 49130U 24420RS  26070.40834491  .00000000  00000+0  00000-0 0  9996
2 49130 100.0000   0.0000 0000000   0.0000   0.0000 15.59190035    19
CTC1_L_00243001-02
1 49131U 25098IB  26070.40834491  .00000000  00000+0  00000-0 0  9999
2 49131 100.0000   0.0000 0000000   0.0000  90.0000 15.59190035    19
CTC1_L_00243001-03
1 49132U 22684QA  26070.40834491  .00000000  00000+0  00000-0 0  9998
2 49132 100.0000   0.0000 0000000   0.0000 180.0000 15.59190035    10
CTC1_L_00243001-04
1 49133U 23674OG  26070.40834491  .00000000  00000+0  00000-0 0  9999
2 49133 100.0000   0.0000 0000000   0.0000 270.0000 15.59190035    11
CTC1_L_00243002-01
1 49134U 25372XI  26070.40834491  .00000000  00000+0  00000-0 0  9997
2 49134 100.0000  12.0000 0000000   0.0000  12.0000 15.59190035    19
CTC1_L_00243002-02
1 49135U 26883KZ  26070.40834491  .00000000  00000+0  00000-0 0  9996
2 49135 100.0000  12.0000 0000000   0.0000 102.0000 15.59190035    10
CTC1_L_00243002-03
1 49136U 24071VB  26070.40834491  .00000000  00000+0  00000-0 0  9994
2 49136 100.0000  12.0000 0000000   0.0000 192.0000 15.59190035    10
CTC1_L_00243002-04
1 49137U 25382LK  26070.40834491  .00000000  00000+0  00000-0 0  9991
2 49137 100.0000  12.0000 0000000   0.0000 282.0000 15.59190035    11
CTC1_L_00243003-01
1 49138U 24355JN  26070.40834491  .00000000  00000+0  00000-0 0  9991
2 49138 100.0000  24.0000 0000000   0.0000  24.0000 15.59190035    19
CTC1_L_00243003-02
1 49139U 26924DM  26070.40834491  .00000000  00000+0  00000-0 0  9996
2 49139 100.0000  24.0000 0000000   0.0000 114.0000 15.59190035    10
CTC1_L_00243003-03
1 49140U 24994CX  26070.40834491  .00000000  00000+0  00000-0 0  9993
2 49140 100.0000  24.0000 0000000   0.0000 204.0000 15.59190035    12
CTC1_L_00243003-04
1 49141U 25211QT  26070.40834491  .00000000  00000+0  00000-0 0  9997
2 49141 100.0000  24.0000 0000000   0.0000 294.0000 15.59190035    12
CTC1_L_00243004-01
1 49142U 24234TN  26070.40834491  .00000000  00000+0  00000-0 0  9992
2 49142 100.0000  36.0000 0000000   0.0000  36.0000 15.59190035    10
CTC1_L_00243004-02
1 49143U 26404HE  26070.40834491  .00000000  00000+0  00000-0 0  9994
2 49143 100.0000  36.0000 0000000   0.0000 126.0000 15.59190035    11
CTC1_L_00243004-03
1 49144U 22235SW  26070.40834491  .00000000  00000+0  00000-0 0  9993
2 49144 100.0000  36.0000 0000000   0.0000 216.0000 15.59190035    12
CTC1_L_00243004-04
1 49145U 22742OB  26070.40834491  .00000000  00000+0  00000-0 0  9997
2 49145 100.0000  36.0000 0000000   0.0000 306.0000 15.59190035    13
CTC1_L_00243005-01
1 49146U 23591RQ  26070.40834491  .00000000  00000+0  00000-0 0  9991
2 49146 100.0000  48.0000 0000000   0.0000  48.0000 15.59190035    10
CTC1_L_00243005-02
1 49147U 26168GA  26070.40834491  .00000000  00000+0  00000-0 0  9995
2 49147 100.0000  48.0000 0000000   0.0000 138.0000 15.59190035    11
CTC1_L_00243005-03
1 49148U 25540FU  26070.40834491  .00000000  00000+0  00000-0 0  9999
2 49148 100.0000  48.0000 0000000   0.0000 228.0000 15.59190035    12
CTC1_L_00243005-04
1 49149U 26414FH  26070.40834491  .00000000  00000+0  00000-0 0  9991
2 49149 100.0000  48.0000 0000000   0.0000 318.0000 15.59190035    13
CTC1_L_00243006-01
1 49150U 25493JN  26070.40834491  .00000000  00000+0  00000-0 0  9999
2 49150 100.0000  60.0000 0000000   0.0000  60.0000 15.59190035    13
CTC1_L_00243006-02
1 49151U 23513DB  26070.40834491  .00000000  00000+0  00000-0 0  9991
2 49151 100.0000  60.0000 0000000   0.0000 150.0000 15.59190035    14
CTC1_L_00243006-03
1 49152U 25172RE  26070.40834491  .00000000  00000+0  00000-0 0  9995
2 49152 100.0000  60.0000 0000000   0.0000 240.0000 15.59190035    15
CTC1_L_00243006-04
1 49153U 26620CX  26070.40834491  .00000000  00000+0  00000-0 0  9995
2 49153 100.0000  60.0000 0000000   0.0000 330.0000 15.59190035    16
CTC1_L_00243007-01
1 49154U 24769NU  26070.40834491  .00000000  00000+0  00000-0 0  9998
2 49154 100.0000  72.0000 0000000   0.0000  72.0000 15.59190035    13
CTC1_L_00243007-02
1 49155U 25350CV  26070.40834491  .00000000  00000+0  00000-0 0  9996
2 49155 100.0000  72.0000 0000000   0.0000 162.0000 15.59190035    14
CTC1_L_00243007-03
1 49156U 25175MJ  26070.40834491  .00000000  00000+0  00000-0 0  9992
2 49156 100.0000  72.0000 0000000   0.0000 252.0000 15.59190035    15
CTC1_L_00243007-04
1 49157U 25437VL  26070.40834491  .00000000  00000+0  00000-0 0  9994
2 49157 100.0000  72.0000 0000000   0.0000 342.0000 15.59190035    16
CTC1_L_00243008-01
1 49158U 22866LL  26070.40834491  .00000000  00000+0  00000-0 0  9998
2 49158 100.0000  84.0000 0000000   0.0000  84.0000 15.59190035    13
CTC1_L_00243008-02
1 49159U 24620L   26070.40834491  .00000000  00000+0  00000-0 0  9999
2 49159 100.0000  84.0000 0000000   0.0000 174.0000 15.59190035    14
CTC1_L_00243008-03
1 49160U 24110XU  26070.40834491  .00000000  00000+0  00000-0 0  9995
2 49160 100.0000  84.0000 0000000   0.0000 264.0000 15.59190035    16
CTC1_L_00243008-04
1 49161U 23083FA  26070.40834491  .00000000  00000+0  00000-0 0  9994
2 49161 100.0000  84.0000 0000000   0.0000 354.0000 15.59190035    17
CTC1_L_00243009-01
1 49162U 23607WQ  26070.40834491  .00000000  00000+0  00000-0 0  9997
2 49162 100.0000  96.0000 0000000   0.0000  96.0000 15.59190035    14
CTC1_L_00243009-02
1 49163U 22338ZC  26070.40834491  .00000000  00000+0  00000-0 0  9998
2 49163 100.0000  96.0000 0000000   0.0000 186.0000 15.59190035    15
CTC1_L_00243009-03
1 49164U 26961TN  26070.40834491  .00000000  00000+0  00000-0 0  9995
2 49164 100.0000  96.0000 0000000   0.0000 276.0000 15.59190035    16
CTC1_L_00243009-04
1 49165U 23950SL  26070.40834491  .00000000  00000+0  00000-0 0  9991
2 49165 100.0000  96.0000 0000000   0.0000   6.0000 15.59190035    18
CTC1_L_00243010-01
1 49166U 23716PR  26070.40834491  .00000000  00000+0  00000-0 0  9992
2 49166 100.0000 108.0000 0000000   0.0000 108.0000 15.59190035    16
CTC1_L_00243010-02
1 49167U 22713KH  26070.40834491  .00000000  00000+0  00000-0 0  9999
2 49167 100.0000 108.0000 0000000   0.0000 198.0000 15.59190035    16
CTC1_L_00243010-03
1 49168U 26623YO  26070.40834491  .00000000  00000+0  00000-0 0  9994
2 49168 100.0000 108.0000 0000000   0.0000 288.0000 15.59190035    17
CTC1_L_00243010-04
1 49169U 25685DQ  26070.40834491  .00000000  00000+0  00000-0 0  9992
2 49169 100.0000 108.0000 0000000   0.0000  18.0000 15.59190035    19
CTC1_L_00243011-01
1 49170U 26288LZ  26070.40834491  .00000000  00000+0  00000-0 0  9994
2 49170 100.0000 120.0000 0000000   0.0000 120.0000 15.59190035    19
CTC1_L_00243011-02
1 49171U 22696EE  26070.40834491  .00000000  00000+0  00000-0 0  9994
2 49171 100.0000 120.0000 0000000   0.0000 210.0000 15.59190035    10
CTC1_L_00243011-03
1 49172U 25271YZ  26070.40834491  .00000000  00000+0  00000-0 0  9997
2 49172 100.0000 120.0000 0000000   0.0000 300.0000 15.59190035    11
CTC1_L_00243011-04
1 49173U 24434JW  26070.40834491  .00000000  00000+0  00000-0 0  9998
2 49173 100.0000 120.0000 0000000   0.0000  30.0000 15.59190035    12
CTC1_L_00243012-01
1 49174U 22938GS  26070.40834491  .00000000  00000+0  00000-0 0  9996
2 49174 100.0000 132.0000 0000000   0.0000 132.0000 15.59190035    19
CTC1_L_00243012-02
1 49175U 24116PY  26070.40834491  .00000000  00000+0  00000-0 0  9997
2 49175 100.0000 132.0000 0000000   0.0000 222.0000 15.59190035    10
CTC1_L_00243012-03
1 49176U 23164SC  26070.40834491  .00000000  00000+0  00000-0 0  9990
2 49176 100.0000 132.0000 0000000   0.0000 312.0000 15.59190035    11
CTC1_L_00243012-04
1 49177U 22350MS  26070.40834491  .00000000  00000+0  00000-0 0  9997
2 49177 100.0000 132.0000 0000000   0.0000  42.0000 15.59190035    12
CTC1_L_00243013-01
1 49178U 25199XV  26070.40834491  .00000000  00000+0  00000-0 0  9992
2 49178 100.0000 144.0000 0000000   0.0000 144.0000 15.59190035    19
CTC1_L_00243013-02
1 49179U 25213GJ  26070.40834491  .00000000  00000+0  00000-0 0  9990
2 49179 100.0000 144.0000 0000000   0.0000 234.0000 15.59190035    10
CTC1_L_00243013-03
1 49180U 26289FD  26070.40834491  .00000000  00000+0  00000-0 0  9996
2 49180 100.0000 144.0000 0000000   0.0000 324.0000 15.59190035    12
CTC1_L_00243013-04
1 49181U 26788WZ  26070.40834491  .00000000  00000+0  00000-0 0  9991
2 49181 100.0000 144.0000 0000000   0.0000  54.0000 15.59190035    13
CTC1_L_00243014-01
1 49182U 23483ME  26070.40834491  .00000000  00000+0  00000-0 0  9991
2 49182 100.0000 156.0000 0000000   0.0000 156.0000 15.59190035    10
CTC1_L_00243014-02
1 49183U 23896EL  26070.40834491  .00000000  00000+0  00000-0 0  9990
2 49183 100.0000 156.0000 0000000   0.0000 246.0000 15.59190035    11
CTC1_L_00243014-03
1 49184U 22574ZE  26070.40834491  .00000000  00000+0  00000-0 0  9993
2 49184 100.0000 156.0000 0000000   0.0000 336.0000 15.59190035    12
CTC1_L_00243014-04
1 49185U 22727HF  26070.40834491  .00000000  00000+0  00000-0 0  9994
2 49185 100.0000 156.0000 0000000   0.0000  66.0000 15.59190035    13
CTC1_L_00243015-01
1 49186U 25250OU  26070.40834491  .00000000  00000+0  00000-0 0  9999
2 49186 100.0000 168.0000 0000000   0.0000 168.0000 15.59190035    10
CTC1_L_00243015-02
1 49187U 25189OR  26070.40834491  .00000000  00000+0  00000-0 0  9991
2 49187 100.0000 168.0000 0000000   0.0000 258.0000 15.59190035    11
CTC1_L_00243015-03
1 49188U 23027OM  26070.40834491  .00000000  00000+0  00000-0 0  9991
2 49188 100.0000 168.0000 0000000   0.0000 348.0000 15.59190035    12
CTC1_L_00243015-04
1 49189U 23324ZW  26070.40834491  .00000000  00000+0  00000-0 0  9992
2 49189 100.0000 168.0000 0000000   0.0000  78.0000 15.59190035    13
CTC1_L_00243016-01
1 49190U 22892HI  26070.40834491  .00000000  00000+0  00000-0 0  9993
2 49190 100.0000 180.0000 0000000   0.0000 180.0000 15.59190035    13
CTC1_L_00243016-02
1 49191U 23127TP  26070.40834491  .00000000  00000+0  00000-0 0  9996
2 49191 100.0000 180.0000 0000000   0.0000 270.0000 15.59190035    14
